{
  "type": "FeatureCollection",
  "features": [
    {
      "type": "Feature",
      "properties": {
        "norad_id": 39617,
        "name": "ASTRA 5B (EGNOS/PRN 123)",
        "group": "gnss",
        "lat": -0.056616706282803776,
        "lon": -34.753820055746495,
        "alt_km": 35777.66735764217,
        "timestamp": "2025-12-09T14:52:26.404501+00:00",
        "meta_object_name": "ASTRA 5B (EGNOS/PRN 123)",
        "meta_object_id": "2014-011B",
        "meta_epoch": "2025-12-09T05:07:27.639840",
        "meta_mean_motion": 1.0027037,
        "meta_eccentricity": 0.00045226,
        "meta_inclination": 0.0554,
        "meta_ra_of_asc_node": 29.8343,
        "meta_arg_of_pericenter": 232.6651,
        "meta_mean_anomaly": 276.0604,
        "meta_ephemeris_type": 0,
        "meta_classification_type": "U",
        "meta_norad_cat_id": 39617,
        "meta_element_set_no": 999,
        "meta_rev_at_epoch": 4276,
        "meta_bstar": 0,
        "meta_mean_motion_dot": 1.39e-06,
        "meta_mean_motion_ddot": 0,
        "tle_line1": "1 39617U 14011B   25343.21351435  .00000139  00000+0  00000+0 0  9995",
        "tle_line2": "2 39617   0.0554  29.8343 0004522 232.6651 276.0604  1.00270370 42763"
      },
      "geometry": {
        "type": "Point",
        "coordinates": [
          -34.753820055746495,
          -0.056616706282803776
        ]
      }
    },
    {
      "type": "Feature",
      "properties": {
        "norad_id": 39620,
        "name": "COSMOS 2492 (754)",
        "group": "gnss",
        "lat": -61.063588758423855,
        "lon": -163.73292411004138,
        "alt_km": 19116.7264685562,
        "timestamp": "2025-12-09T14:52:26.404512+00:00",
        "meta_object_name": "COSMOS 2492 (754)",
        "meta_object_id": "2014-012A",
        "meta_epoch": "2025-12-08T08:23:17.785824",
        "meta_mean_motion": 2.13103117,
        "meta_eccentricity": 0.0014207,
        "meta_inclination": 65.4103,
        "meta_ra_of_asc_node": 320.4195,
        "meta_arg_of_pericenter": 311.8365,
        "meta_mean_anomaly": 48.0373,
        "meta_ephemeris_type": 0,
        "meta_classification_type": "U",
        "meta_norad_cat_id": 39620,
        "meta_element_set_no": 999,
        "meta_rev_at_epoch": 9117,
        "meta_bstar": 0,
        "meta_mean_motion_dot": -4.9e-07,
        "meta_mean_motion_ddot": 0,
        "tle_line1": "1 39620U 14012A   25342.34951141 -.00000049  00000+0  00000+0 0  9994",
        "tle_line2": "2 39620  65.4103 320.4195 0014207 311.8365  48.0373  2.13103117 91178"
      },
      "geometry": {
        "type": "Point",
        "coordinates": [
          -163.73292411004138,
          -61.063588758423855
        ]
      }
    },
    {
      "type": "Feature",
      "properties": {
        "norad_id": 39635,
        "name": "IRNSS-1B",
        "group": "gnss",
        "lat": 26.379924962913222,
        "lon": -0.5242007736588924,
        "alt_km": 35755.86807790507,
        "timestamp": "2025-12-09T14:52:26.404524+00:00",
        "meta_object_name": "IRNSS-1B",
        "meta_object_id": "2014-017A",
        "meta_epoch": "2025-12-07T19:02:08.350080",
        "meta_mean_motion": 1.00276938,
        "meta_eccentricity": 0.00176548,
        "meta_inclination": 28.8332,
        "meta_ra_of_asc_node": 243.6763,
        "meta_arg_of_pericenter": 183.0277,
        "meta_mean_anomaly": 350.7455,
        "meta_ephemeris_type": 0,
        "meta_classification_type": "U",
        "meta_norad_cat_id": 39635,
        "meta_element_set_no": 999,
        "meta_rev_at_epoch": 4287,
        "meta_bstar": 0,
        "meta_mean_motion_dot": 1.18e-06,
        "meta_mean_motion_ddot": 0,
        "tle_line1": "1 39635U 14017A   25341.79315220  .00000118  00000+0  00000+0 0  9991",
        "tle_line2": "2 39635  28.8332 243.6763 0017654 183.0277 350.7455  1.00276938 42872"
      },
      "geometry": {
        "type": "Point",
        "coordinates": [
          -0.5242007736588924,
          26.379924962913222
        ]
      }
    },
    {
      "type": "Feature",
      "properties": {
        "norad_id": 39727,
        "name": "LUCH 5V (SDCM/PRN 141)",
        "group": "gnss",
        "lat": -2.660095314942903,
        "lon": 36.62172664543735,
        "alt_km": 35796.882941491625,
        "timestamp": "2025-12-09T14:52:26.404536+00:00",
        "meta_object_name": "LUCH 5V (SDCM/PRN 141)",
        "meta_object_id": "2014-023A",
        "meta_epoch": "2025-12-08T17:28:47.961696",
        "meta_mean_motion": 1.00270251,
        "meta_eccentricity": 0.00045753,
        "meta_inclination": 4.6594,
        "meta_ra_of_asc_node": 71.5729,
        "meta_arg_of_pericenter": 204.2143,
        "meta_mean_anomaly": 158.9163,
        "meta_ephemeris_type": 0,
        "meta_classification_type": "U",
        "meta_norad_cat_id": 39727,
        "meta_element_set_no": 999,
        "meta_rev_at_epoch": 4245,
        "meta_bstar": 0,
        "meta_mean_motion_dot": -2.68e-06,
        "meta_mean_motion_ddot": 0,
        "tle_line1": "1 39727U 14023A   25342.72833289 -.00000268  00000+0  00000+0 0  9991",
        "tle_line2": "2 39727   4.6594  71.5729 0004575 204.2143 158.9163  1.00270251 42452"
      },
      "geometry": {
        "type": "Point",
        "coordinates": [
          36.62172664543735,
          -2.660095314942903
        ]
      }
    },
    {
      "type": "Feature",
      "properties": {
        "norad_id": 39741,
        "name": "GPS BIIF-6  (PRN 06)",
        "group": "gnss",
        "lat": 56.224482315334555,
        "lon": 59.64267296488734,
        "alt_km": 20237.460421741263,
        "timestamp": "2025-12-09T14:52:26.404548+00:00",
        "meta_object_name": "GPS BIIF-6  (PRN 06)",
        "meta_object_id": "2014-026A",
        "meta_epoch": "2025-12-09T00:05:22.717824",
        "meta_mean_motion": 2.00561537,
        "meta_eccentricity": 0.00390851,
        "meta_inclination": 56.5851,
        "meta_ra_of_asc_node": 338.9217,
        "meta_arg_of_pericenter": 318.4622,
        "meta_mean_anomaly": 41.2516,
        "meta_ephemeris_type": 0,
        "meta_classification_type": "U",
        "meta_norad_cat_id": 39741,
        "meta_element_set_no": 999,
        "meta_rev_at_epoch": 8472,
        "meta_bstar": 0,
        "meta_mean_motion_dot": -8.4e-07,
        "meta_mean_motion_ddot": 0,
        "tle_line1": "1 39741U 14026A   25343.00373516 -.00000084  00000+0  00000+0 0  9990",
        "tle_line2": "2 39741  56.5851 338.9217 0039085 318.4622  41.2516  2.00561537 84729"
      },
      "geometry": {
        "type": "Point",
        "coordinates": [
          59.64267296488734,
          56.224482315334555
        ]
      }
    },
    {
      "type": "Feature",
      "properties": {
        "norad_id": 40001,
        "name": "COSMOS 2500 (755)",
        "group": "gnss",
        "lat": 50.24145582230928,
        "lon": 106.62822109988271,
        "alt_km": 19126.460886114037,
        "timestamp": "2025-12-09T14:52:26.404559+00:00",
        "meta_object_name": "COSMOS 2500 (755)",
        "meta_object_id": "2014-032A",
        "meta_epoch": "2025-12-08T23:47:04.888320",
        "meta_mean_motion": 2.13105786,
        "meta_eccentricity": 0.00083334,
        "meta_inclination": 65.3455,
        "meta_ra_of_asc_node": 320.1603,
        "meta_arg_of_pericenter": 219.1705,
        "meta_mean_anomaly": 140.7654,
        "meta_ephemeris_type": 0,
        "meta_classification_type": "U",
        "meta_norad_cat_id": 40001,
        "meta_element_set_no": 999,
        "meta_rev_at_epoch": 8940,
        "meta_bstar": 0,
        "meta_mean_motion_dot": -4.9e-07,
        "meta_mean_motion_ddot": 0,
        "tle_line1": "1 40001U 14032A   25342.99102880 -.00000049  00000+0  00000+0 0  9990",
        "tle_line2": "2 40001  65.3455 320.1603 0008333 219.1705 140.7654  2.13105786 89403"
      },
      "geometry": {
        "type": "Point",
        "coordinates": [
          106.62822109988271,
          50.24145582230928
        ]
      }
    },
    {
      "type": "Feature",
      "properties": {
        "norad_id": 40105,
        "name": "GPS BIIF-7  (PRN 09)",
        "group": "gnss",
        "lat": 17.434625451434517,
        "lon": 108.60656122906023,
        "alt_km": 20191.909629497153,
        "timestamp": "2025-12-09T14:52:26.404571+00:00",
        "meta_object_name": "GPS BIIF-7  (PRN 09)",
        "meta_object_id": "2014-045A",
        "meta_epoch": "2025-12-08T14:13:50.768544",
        "meta_mean_motion": 2.00572212,
        "meta_eccentricity": 0.00327724,
        "meta_inclination": 55.2267,
        "meta_ra_of_asc_node": 96.0644,
        "meta_arg_of_pericenter": 119.7768,
        "meta_mean_anomaly": 240.5333,
        "meta_ephemeris_type": 0,
        "meta_classification_type": "U",
        "meta_norad_cat_id": 40105,
        "meta_element_set_no": 999,
        "meta_rev_at_epoch": 8225,
        "meta_bstar": 0,
        "meta_mean_motion_dot": 0,
        "meta_mean_motion_ddot": 0,
        "tle_line1": "1 40105U 14045A   25342.59294871  .00000000  00000+0  00000+0 0  9993",
        "tle_line2": "2 40105  55.2267  96.0644 0032772 119.7768 240.5333  2.00572212 82256"
      },
      "geometry": {
        "type": "Point",
        "coordinates": [
          108.60656122906023,
          17.434625451434517
        ]
      }
    }
  ]
}